#dP2018  8 16  0  0  0.00000000      96 __u+U IGS08 FIT  IAC
## 2014 345600.00000000   900.00000000 58346 0.0000000000000
+   86   C01C02C03C04C05C06C07C08C09C10C11C12C13C14E01E02E03
+        E04E05E07E08E09E11E12E14E18E19E24E26E30G01G02G03G05
+        G06G07G08G09G10G11G12G13G14G15G16G17G18G19G20G21G22
+        G23G24G25G26G27G28G29G30G31G32J01J02J03R01R02R03R04
+        R07R08R09R10R11R13R14R15R16R17R18R19R20R21R22R23R24
+        R26  0  0  0  0  0  0  0  0  0  0  0  0  0  0  0  0
++        13 12 13 12 12  8  8  8  8  8  7  8  8  7  7  7  7
++         7  7  7  7  7  7  7  7  7  7  7  7  7  3  3  3  3
++         3  3  3  3  3  3  6  3  3  3  3  3  3  3  3  3  3
++         3  3  3  3  3  3  3  3  3  3 10 11 11  5  5  5  5
++         5  5  5  5  5  5  5  5  5  5  5  5  5  5  5  5  5
++         7  0  0  0  0  0  0  0  0  0  0  0  0  0  0  0  0
%c M  cc GPS ccc cccc cccc cccc cccc ccccc ccccc ccccc ccccc
%c cc cc ccc ccc cccc cccc cccc cccc ccccc ccccc ccccc ccccc
%f  1.2500000  1.025000000  0.00000000000  0.000000000000000
%f  0.0000000  0.000000000  0.00000000000  0.000000000000000
%i    0    0    0    0      0      0      0      0         0
%i    0    0    0    0      0      0      0      0         0
/* INFORMATION & ANALYSIS CENTER (IAC)            FINAL DATA
/* S/V CLOCKS ARE ALIGNED TO GPS & GLONASS TIME RESPECTIVELY
/* USING THE BROADCAST EPHEMERIS                            
/* PCV:IGS14_2000 OL/AL:FES2004  NONE     YN ORB:CoN CLK:CoN
*  2018 08 16 21 30  0.00000000
PC01 -32297.189023  27089.617541    938.221611    479.193374
PC02   4387.976441  41918.247992  -1381.542001   -107.742725
PC03 -14831.879336  39453.398310    265.112903    386.283373
PC04 -39636.497505  14407.086305    359.663324   -233.358665
PC05  21947.231966  35971.953414  -1116.077145    -52.723083
PC06  -8348.520934  36502.276236 -18736.861091    230.056986
PC07 -14577.046390  21817.993916  33084.903891     20.633124
PC08 -25441.525474  31120.231745 -13095.517272    486.607691
PC09   -630.658993  41398.167765  -6840.581677     31.680229
PC10   1444.505048  26780.485640  32731.119162      3.180650
PC11 -12182.044528 -10329.083830  22924.142403   -638.394613
PC12    922.923422 -24886.282277  12543.866806    562.683657
PC13 -13488.155290  32179.674262 -23848.488208   -230.222196
PC14 -20087.230654 -18489.264906  -5840.952299    302.764384
PE01  -8988.794573  14273.512182  24325.389535   -414.262358
PE02   8967.680726 -14278.129280 -24325.375238     23.764394
PE03   4037.109967 -24759.951890  15706.773148    -66.479861
PE04   9932.516681  27827.506494   1796.461540    -97.666131
PE05  15687.020792  -7173.131383  24062.208217    210.171206
PE07 -18119.764895 -14558.581593 -18309.105379    -21.287003
PE08 -10170.581584 -27732.095868  -1792.123228   6522.092019
PE09  18161.231950  14458.316235  18387.202898   6704.049203
PE11  18255.689751   2964.067608 -23124.121296   3800.470565
PE12   2184.215949  19625.903412 -22048.469060   4842.533093
PE14  17573.612627 -19839.218030 -17070.585325   6534.328182
PE18  -8384.133357  23428.358816   4818.677108   5977.957817
PE19  -5186.358699  23596.790823 -17091.368953    -13.129280
PE24  27693.859231   9397.404880   4551.459510   6543.513477
PE26 -23309.162691  14768.955026  10718.720664   5586.001100
PE30 -13250.415060 -16808.921242 -20448.796407   5590.299526
PG01  -2416.407152  16531.715667 -20737.038046    -77.208190
PG02  20189.782290 -15907.125380   6758.658545     26.047244
PG03   8120.214988  19651.080485 -15987.861544    122.578110
PG05  12345.886166  -9964.658062  21214.828354     -3.117292
PG06  24750.936604  -4996.851968  -8248.489222    375.436922
PG07  14159.192049   9719.996633  20607.439585    140.566293
PG08  -5913.124970  25268.468388   5297.030635   -111.888993
PG09   8430.457563  20642.230355  14393.190069    510.764717
PG10 -23375.663280  -9435.856003  -8588.011046    186.503907
PG11  -4224.556844  22187.576421 -14678.799568   -724.342433
PG12      0.000000      0.000000      0.000000 999999.999999
PG13  12515.397325 -20529.355760  11165.661992    -90.869809
PG14 -15514.893252   6919.073642 -20067.119573    -97.602625
PG15   1587.503259 -26240.932972   1542.480821   -348.341494
PG16 -13884.940478   6815.917365  21494.949913     13.282960
PG17  14069.368161   4008.931979 -21784.220450    -66.542929
PG18 -11235.018281  18358.602062 -15925.461883     46.417077
PG19  15563.055319  -6867.036532 -20735.246808   -411.179342
PG20 -22614.715077 -13952.517235   1352.735762    514.266718
PG21 -17366.036940  -7047.555674  19605.706981   -351.576897
PG22    209.505041  17618.874239 -19644.485464   -491.229499
PG23   2152.725184  25617.447222   6022.598981   -212.686679
PG24   6224.072777 -18123.699566 -18386.332495    -54.057035
PG25 -15772.639883 -19422.920766  -9432.532893   -632.658740
PG26 -20846.853229   -226.340939  16526.942339    -49.594872
PG27 -11930.020491  18201.308707  14958.410384    353.386260
PG28  21797.574220  13597.434611  -6006.110709    738.647878
PG29  -5637.974205 -21988.145944  13765.703402    394.702519
PG30  22194.757502   2642.043425  14495.625982     36.757325
PG31 -25408.009139   5938.240752  -6014.763668    100.193916
PG32 -15048.836962  -2921.472779 -21650.046708   -449.767442
PJ01 -19567.731913  21918.931888 -25623.992005   -139.427504
PJ02 -31642.679986  23123.629077  20282.356078     -9.093945
PJ03 -27235.380456  27243.894743  22166.521416     -3.412519
PR01  11252.472767  -2362.349711  22775.460342     30.627956
PR02  -1223.999645 -19317.512085  16681.386345    325.042620
PR03 -11652.963689 -22708.725461    610.547887    140.697040
PR04 -15297.969121 -12439.329431 -16173.838109    272.629814
PR07  11865.110237  22560.416417    -26.303441    -44.955319
PR08  15331.009518  12979.296461  15773.511157     21.750668
PR09  -6647.435860  10473.150610  22294.398382     23.582427
PR10  11873.008101   9961.754412  20273.286313     29.854827
PR11  24494.015430   4015.564649   6019.248746    -37.935278
PR13   6913.210375 -10261.225364 -22321.218069    -13.668094
PR14 -11691.971836 -10143.366749 -20251.694614     30.103272
PR15 -22743.299583  -5790.084228 -10093.450600    -14.808461
PR16 -22878.393748   4388.363816  10495.316581     99.476477
PR17    228.085730 -16807.039734  19172.983673    156.595779
PR18 -10929.566985  -2317.530636  22932.716820    207.036867
PR19 -16550.218571  13440.807255  14001.327775    -58.104685
PR20 -12213.257360  21915.987512  -4476.918648   -348.928240
PR21    -20.050551  16559.067337 -19419.815664      1.680420
PR22  12091.828340     40.060736 -22481.373702    -59.197319
PR23  16288.541791 -16642.532349 -10421.975822    172.380194
PR24  11275.366583 -22202.364029   5523.884963   -170.196760
PR26 -12364.583840  22084.728407  -3275.757892     41.273345
EOF
